MEAN_MOTION;ECCENTRICITY;INCLINATION;RA_OF_ASC_NODE;ARG_OF_PERICENTER;MEAN_ANOMALY;BSTAR;MEAN_MOTION_DOT;MEAN_MOTION_DDOT;TYPE
14.73165153;0.0007585;48.4426;314.0128;357.6362;31.2834;2.6425E-5;-3.0E-7;0;Orbcomm
14.7316557;0.000753;48.4423;308.5674;2.6655;49.6932;2.7266E-5;-2.5E-7;0;Orbcomm
14.73165612;0.0007529;48.4423;308.2325;2.9662;67.2159;2.7772E-5;-2.1E-7;0;Orbcomm
14.73166038;0.0007483;48.4422;303.734;7.2163;97.9873;2.9661E-5;-9.0E-8;0;Orbcomm
14.73166038;0.0007476;48.4422;303.4402;7.4784;69.2043;2.937E-5;-1.1E-7;0;Orbcomm
14.73166309;0.0007452;48.4421;300.2362;10.4291;80.8271;3.0052E-5;-7.0E-8;0;Orbcomm
14.73166353;0.0007442;48.4421;299.5763;11.0585;104.6747;2.9519E-5;-1.0E-7;0;Orbcomm
14.73166462;0.000744;48.442;298.2769;12.2718;129.4684;3.0087E-5;-6.0E-8;0;Orbcomm
14.73166642;0.0007414;48.442;295.5058;14.8278;13.104;2.8993E-5;-1.3E-7;0;Orbcomm
14.73166667;0.0007407;48.442;295.1723;15.1581;29.0033;2.8692E-5;-1.5E-7;0;Orbcomm
14.73166982;0.0007385;48.4419;291.3109;18.7469;61.7448;2.8869E-5;-1.4E-7;0;Orbcomm
14.73166988;0.0007373;48.4418;290.3226;19.6996;95.6956;2.6873E-5;-2.7E-7;0;Orbcomm
14.73167306;0.0007325;48.4417;285.537;24.2203;90.2689;2.5583E-5;-3.6E-7;0;Orbcomm
14.73167733;0.0007298;48.4416;280.4478;28.8964;66.9883;2.6741E-5;-2.8E-7;0;Orbcomm
14.73167861;0.0007295;48.4415;279.1803;30.1033;55.7874;2.7719E-5;-2.2E-7;0;Orbcomm
14.73168092;0.0007255;48.4414;274.6818;34.3937;86.5231;2.4874E-5;-4.0E-7;0;Orbcomm
14.73168324;0.0007205;48.4413;270.8828;38.0852;48.5658;2.4373E-5;-4.4E-7;0;Orbcomm
14.73168718;0.0007157;48.4413;266.0891;42.6678;51.9481;2.7084E-5;-2.6E-7;0;Orbcomm
14.73168746;0.0007157;48.4413;265.7176;43.0252;110.662;2.7191E-5;-2.5E-7;0;Orbcomm
14.73168944;0.0007135;48.4413;261.9407;46.5885;47.9813;2.6526E-5;-2.9E-7;0;Orbcomm
14.73169176;0.0007112;48.4413;258.4916;49.8522;335.7633;2.7616E-5;-2.2E-7;0;Orbcomm
14.73169406;0.0007067;48.4413;253.307;54.9302;59.649;2.5404E-5;-3.7E-7;0;Orbcomm
14.73169424;0.0007074;48.4413;252.6864;55.4914;39.1846;2.5396E-5;-3.7E-7;0;Orbcomm
14.73169629;0.0007052;48.4414;248.523;59.5165;51.896;2.4169E-5;-4.5E-7;0;Orbcomm
14.73169862;0.0007013;48.4415;244.4472;63.4995;326.195;2.313E-5;-5.2E-7;0;Orbcomm
14.73170036;0.0007005;48.4415;242.4451;65.4689;62.9999;2.3583E-5;-4.9E-7;0;Orbcomm
14.73170204;0.0006978;48.4415;239.6485;68.1872;335.1687;2.2601E-5;-5.5E-7;0;Orbcomm
14.73170341;0.0006961;48.4416;237.6488;70.1558;69.4359;2.2487E-5;-5.6E-7;0;Orbcomm
14.73170515;0.0006941;48.4416;234.8001;72.9418;40.3849;2.143E-5;-6.3E-7;0;Orbcomm
14.73170544;0.0006942;48.4416;234.18;73.5401;19.3967;2.1375E-5;-6.3E-7;0;Orbcomm
14.73170787;0.0006919;48.4416;230.079;77.5128;322.0915;2.0676E-5;-6.8E-7;0;Orbcomm
14.73170787;0.0006919;48.4416;230.079;77.5128;322.0915;2.0676E-5;-6.8E-7;0;Orbcomm
14.73171527;0.000687;48.4417;220.825;86.5839;313.3265;2.363E-5;-4.8E-7;0;Orbcomm
14.73171555;0.0006889;48.4417;220.4907;86.8446;330.1908;2.3695E-5;-4.8E-7;0;Orbcomm
14.73171956;0.0006876;48.4417;215.6733;91.5829;0.331;2.574E-5;-3.5E-7;0;Orbcomm
14.73171956;0.0006876;48.4417;215.6733;91.5829;0.331;2.574E-5;-3.5E-7;0;Orbcomm
14.73172498;0.0006885;48.4417;210.9072;96.2164;332.6857;3.0136E-5;-6.0E-8;0;Orbcomm
14.73172593;0.0006889;48.4417;209.8916;97.1628;37.6099;3.0586E-5;-3.0E-8;0;Orbcomm
14.73172981;0.0006886;48.4417;205.0975;101.7669;41.641;3.0678E-5;-2.0E-8;0;Orbcomm
14.73173299;0.0006881;48.4418;201.654;105.1918;323.1847;3.1097E-5;0;0;Orbcomm
14.73173723;0.0006878;48.4418;197.1665;109.5783;341.4089;3.156E-5;3.0E-8;0;Orbcomm
14.73174193;0.0006886;48.4418;192.4008;114.2721;313.4128;3.202E-5;6.0E-8;0;Orbcomm
14.73174718;0.0006899;48.4417;187.6024;118.8991;322.3408;3.2847E-5;1.2E-7;0;Orbcomm
14.73175179;0.000691;48.4416;182.8071;123.491;327.8525;3.2316E-5;8.0E-8;0;Orbcomm
14.73175738;0.0006941;48.4414;177.3371;128.7185;13.7387;3.1972E-5;6.0E-8;0;Orbcomm
14.7317612;0.0006957;48.4413;172.878;132.9645;0.132;3.082E-5;-1.0E-8;0;Orbcomm
14.73176406;0.0006977;48.4412;169.0973;136.6305;301.6786;2.9288E-5;-1.1E-7;0;Orbcomm
14.73176457;0.0006978;48.4412;168.7614;136.9331;320.3059;2.9894E-5;-7.0E-8;0;Orbcomm
14.73176763;0.0007009;48.4411;164.3003;141.0521;309.1715;2.8062E-5;-1.9E-7;0;Orbcomm
14.73176803;0.0007012;48.4411;163.921;141.3878;16.6862;2.8364E-5;-1.7E-7;0;Orbcomm
14.73177159;0.0007037;48.4411;158.8301;146.1992;355.262;2.721E-5;-2.5E-7;0;Orbcomm
14.73177434;0.0007064;48.4411;155.0468;149.7969;299.8476;2.7367E-5;-2.4E-7;0;Orbcomm
14.73177635;0.0007084;48.4411;151.9093;152.748;236.3863;2.6479E-5;-3.0E-7;0;Orbcomm
14.73177797;0.0007096;48.4411;149.5765;154.8977;346.1838;2.6168E-5;-3.2E-7;0;Orbcomm
14.73178076;0.0007124;48.4411;145.4172;158.7721;354.695;2.5462E-5;-3.6E-7;0;Orbcomm
14.73178117;0.0007128;48.4411;144.7776;159.3577;355.6193;2.5147E-5;-3.8E-7;0;Orbcomm
14.73178374;0.0007157;48.4411;140.6622;163.178;314.7261;2.3908E-5;-4.6E-7;0;Orbcomm
14.73178398;0.0007159;48.4411;140.3228;163.4889;337.2614;2.3775E-5;-4.7E-7;0;Orbcomm
14.7317867;0.0007187;48.4411;135.8636;167.5607;323.8525;2.2633E-5;-5.5E-7;0;Orbcomm
14.73178944;0.0007217;48.4411;131.4085;171.6344;305.8309;2.1755E-5;-6.0E-7;0;Orbcomm
14.73179115;0.0007237;48.441;128.6149;174.2256;214.7743;2.1346E-5;-6.3E-7;0;Orbcomm
14.73179278;0.000725;48.441;126.9493;175.7096;292.3666;2.2806E-5;-5.4E-7;0;Orbcomm
14.73179462;0.0007278;48.441;123.4975;178.8686;223.1782;2.1799E-5;-6.0E-7;0;Orbcomm
14.73179598;0.0007287;48.441;121.8169;180.3347;317.7764;2.2836E-5;-5.3E-7;0;Orbcomm
14.73179762;0.0007319;48.4411;118.7027;183.169;228.0666;2.1934E-5;-5.9E-7;0;Orbcomm
14.73179894;0.0007322;48.4411;117.0156;184.634;329.9738;2.2934E-5;-5.3E-7;0;Orbcomm
14.73180092;0.0007363;48.4412;113.9089;187.4641;231.8563;2.3088E-5;-5.2E-7;0;Orbcomm
14.73180193;0.0007363;48.4412;112.5626;188.6304;309.5745;2.3884E-5;-4.7E-7;0;Orbcomm
14.73180397;0.0007381;48.4413;109.0905;191.7068;263.5326;2.3837E-5;-4.7E-7;0;Orbcomm
14.73180479;0.0007385;48.4413;107.7609;192.8731;322.3552;2.3899E-5;-4.6E-7;0;Orbcomm
14.73180778;0.0007419;48.4415;103.3077;196.801;302.386;2.4342E-5;-4.4E-7;0;Orbcomm
14.73180919;0.0007437;48.4416;100.8481;198.9868;194.9252;2.3721E-5;-4.8E-7;0;Orbcomm
14.73181049;0.000744;48.4416;98.8487;200.6683;288.954;2.3986E-5;-4.6E-7;0;Orbcomm
14.7318129;0.0007475;48.4418;95.0691;203.9917;229.6541;2.3543E-5;-4.9E-7;0;Orbcomm
14.73181517;0.0007496;48.4419;91.5978;207.0306;182.8701;2.3058E-5;-5.2E-7;0;Orbcomm
14.73181727;0.0007511;48.442;89.5696;208.7741;309.3164;2.46E-5;-4.2E-7;0;Orbcomm
14.73181753;0.0007512;48.442;89.2602;209.0479;298.12;2.4579E-5;-4.2E-7;0;Orbcomm
14.73181875;0.0007534;48.4421;86.7996;211.2054;191.8884;2.3328E-5;-5.0E-7;0;Orbcomm
14.73182031;0.000755;48.4422;84.7988;212.9729;287.3743;2.3599E-5;-4.8E-7;0;Orbcomm
14.73182375;0.0007578;48.4423;80.0083;217.1257;287.7964;2.3571E-5;-4.9E-7;0;Orbcomm
14.731825;0.0007597;48.4424;77.865;219.0051;183.8773;2.3164E-5;-5.1E-7;0;Orbcomm
14.73182658;0.00076;48.4424;75.5453;220.9114;278.958;2.343E-5;-4.9E-7;0;Orbcomm
14.73182861;0.0007625;48.4426;71.7654;224.1333;220.1571;2.2027E-5;-5.9E-7;0;Orbcomm
14.73182938;0.0007625;48.4426;70.7545;225.0093;279.7918;2.2355E-5;-5.6E-7;0;Orbcomm
14.73183255;0.0007643;48.4428;66.2891;228.8146;273.6853;2.346E-5;-4.9E-7;0;Orbcomm
14.73183504;0.0007664;48.4429;61.5012;232.8944;271.3239;2.2116E-5;-5.8E-7;0;Orbcomm
14.73183803;0.0007682;48.4431;57.0369;236.6926;264.1441;2.2496E-5;-5.6E-7;0;Orbcomm
14.73184123;0.0007701;48.4433;52.8874;240.2117;262.0599;2.3476E-5;-4.9E-7;0;Orbcomm
14.73184377;0.0007718;48.4434;49.4697;243.1083;155.0459;2.3721E-5;-4.8E-7;0;Orbcomm
14.73184518;0.0007715;48.4434;48.1273;244.2639;228.614;2.4985E-5;-3.9E-7;0;Orbcomm
14.7318456;0.0007718;48.4434;47.4594;244.861;261.4841;2.463E-5;-4.2E-7;0;Orbcomm
14.73184958;0.0007735;48.4434;44.6751;247.1838;160.3925;2.8862E-5;-1.4E-7;0;Orbcomm
14.73185202;0.0007737;48.4435;42.9932;248.615;256.6338;3.1769E-5;5.0E-8;0;Orbcomm
14.73185316;0.0007747;48.4435;39.8835;251.2117;162.4282;2.7793E-5;-2.1E-7;0;Orbcomm
14.73185754;0.0007745;48.4435;35.0638;255.1895;196.0339;2.8287E-5;-1.8E-7;0;Orbcomm
14.73185938;0.0007741;48.4435;34.0802;256.0063;224.8808;3.1085E-5;0;0;Orbcomm
14.73186297;0.0007745;48.4435;30.6301;258.8416;154.4434;3.1883E-5;6.0E-8;0;Orbcomm
14.73186522;0.0007739;48.4435;28.948;260.2623;250.7647;3.3754E-5;1.8E-7;0;Orbcomm
14.73186695;0.0007744;48.4435;25.8348;262.7987;160.5536;3.0176E-5;-6.0E-8;0;Orbcomm
14.73187014;0.0007741;48.4435;21.7108;266.2471;129.6252;2.8706E-5;-1.5E-7;0;Orbcomm
14.73187047;0.0007741;48.4435;21.377;266.5244;145.9753;2.8731E-5;-1.5E-7;0;Orbcomm
14.73187449;0.0007732;48.4435;16.5572;270.5326;179.6845;2.7566E-5;-2.3E-7;0;Orbcomm
14.73187805;0.0007721;48.4435;11.7869;274.447;157.6053;2.6196E-5;-3.1E-7;0;Orbcomm
14.73187901;0.0007716;48.4435;10.7754;275.3372;217.8587;2.6488E-5;-3.0E-7;0;Orbcomm
14.73188178;0.0007708;48.4435;6.9949;278.4545;159.8147;2.5197E-5;-3.8E-7;0;Orbcomm
14.73188266;0.0007703;48.4435;5.9812;279.327;222.6618;2.5289E-5;-3.7E-7;0;Orbcomm
14.73188511;0.0007697;48.4435;2.5331;282.1672;149.9545;2.4396E-5;-4.3E-7;0;Orbcomm
14.73188841;0.0007679;48.4434;358.0506;285.9003;163.4193;2.367E-5;-4.8E-7;0;Orbcomm
14.73188882;0.0007674;48.4434;357.3695;286.4968;211.3155;2.3619E-5;-4.8E-7;0;Orbcomm
14.73188939;0.0007671;48.4434;356.7259;287.0428;216.8212;2.3791E-5;-4.7E-7;0;Orbcomm
14.73189147;0.0007653;48.4434;352.9449;290.1509;159.4971;2.2461E-5;-5.6E-7;0;Orbcomm
14.73189224;0.0007648;48.4433;351.9303;291.0369;223.1675;2.2519E-5;-5.5E-7;0;Orbcomm
14.73189369;0.0007626;48.4433;348.488;293.8578;143.8055;2.0791E-5;-6.7E-7;0;Orbcomm
14.73189564;0.0007604;48.4432;343.642;297.9802;206.8553;1.9323E-5;-7.6E-7;0;Orbcomm
14.73189786;0.0007566;48.4431;338.8993;301.8686;153.5045;1.8359E-5;-8.3E-7;0;Orbcomm
14.73189828;0.0007562;48.4431;338.2209;302.4668;198.3212;1.8489E-5;-8.2E-7;0;Orbcomm
14.73190004;0.0007539;48.443;334.438;305.6381;142.8512;1.8284E-5;-8.3E-7;0;Orbcomm
14.73190244;0.0007511;48.443;329.9807;309.4202;127.6016;1.8976E-5;-7.9E-7;0;Orbcomm
